ORBCOMM FM05            
1 25117U 97084F   24294.82665874  .00008289  00000+0  24365-2 0  9999
2 25117  45.0148  75.9018 0002180 148.1964 211.9019 14.44085199406923
ORBCOMM FM06            
1 25118U 97084G   24294.43501660  .00011977  00000+0  34897-2 0  9998
2 25118  45.0137  77.8179 0002087 171.8209 217.9062 14.44229994406840
ORBCOMM FM07            
1 25119U 97084H   24294.50090461  .00008977  00000+0  26331-2 0  9999
2 25119  45.0133  78.1567 0002410 127.7556 232.3513 14.44118953406841
ORBCOMM FM03            
1 25158U 98007B   24294.70614688  .00003806  00000+0  14130-2 0  9993
2 25158 107.9684   4.0420 0048025 305.2533  54.4117 14.33146739389854
ORBCOMM FM04            
1 25159U 98007C   24294.73399172  .00004201  00000+0  15495-2 0  9990
2 25159 107.9669   7.1508 0043756 302.5856  57.1062 14.33414562390003
ORBCOMM FM17            
1 25413U 98046A   24294.36281259  .00004820  00000+0  17605-2 0  9993
2 25413  44.9942 308.6300 0000553   0.2204 359.8642 14.33987231368735
ORBCOMM FM18            
1 25414U 98046B   24294.86410446  .00006248  00000+0  21321-2 0  9997
2 25414  44.9925 229.7322 0002804 152.1864 207.9134 14.37045869369976
ORBCOMM FM19            
1 25415U 98046C   24294.85595021  .00006181  00000+0  21171-2 0  9999
2 25415  44.9935 231.4055 0001644 135.4655 259.1038 14.36876467369960
