<?xml version="1.0" encoding="UTF-8"?>
<ndm xmlns:xsi="http://www.w3.org/2001/XMLSchema-instance" xsi:noNamespaceSchemaLocation="https://sanaregistry.org/r/ndmxml_unqualified/ndmxml-2.0.0-master-2.0.xsd">
<omm id="CCSDS_OMM_VERS" version="2.0">
<header><CREATION_DATE/><ORIGINATOR/></header><body><segment><metadata><OBJECT_NAME>ORBCOMM FM05</OBJECT_NAME><OBJECT_ID>1997-084F</OBJECT_ID><CENTER_NAME>EARTH</CENTER_NAME><REF_FRAME>TEME</REF_FRAME><TIME_SYSTEM>UTC</TIME_SYSTEM><MEAN_ELEMENT_THEORY>SGP4</MEAN_ELEMENT_THEORY></metadata><data><meanElements><EPOCH>2024-10-20T19:50:23.315136</EPOCH><MEAN_MOTION>14.44085199</MEAN_MOTION><ECCENTRICITY>.000218</ECCENTRICITY><INCLINATION>45.0148</INCLINATION><RA_OF_ASC_NODE>75.9018</RA_OF_ASC_NODE><ARG_OF_PERICENTER>148.1964</ARG_OF_PERICENTER><MEAN_ANOMALY>211.9019</MEAN_ANOMALY></meanElements><tleParameters><EPHEMERIS_TYPE>0</EPHEMERIS_TYPE><CLASSIFICATION_TYPE>U</CLASSIFICATION_TYPE><NORAD_CAT_ID>25117</NORAD_CAT_ID><ELEMENT_SET_NO>999</ELEMENT_SET_NO><REV_AT_EPOCH>40692</REV_AT_EPOCH><BSTAR>.24365E-2</BSTAR><MEAN_MOTION_DOT>.8289E-4</MEAN_MOTION_DOT><MEAN_MOTION_DDOT>0</MEAN_MOTION_DDOT></tleParameters></data></segment></body></omm>
<omm id="CCSDS_OMM_VERS" version="2.0">
<header><CREATION_DATE/><ORIGINATOR/></header><body><segment><metadata><OBJECT_NAME>ORBCOMM FM06</OBJECT_NAME><OBJECT_ID>1997-084G</OBJECT_ID><CENTER_NAME>EARTH</CENTER_NAME><REF_FRAME>TEME</REF_FRAME><TIME_SYSTEM>UTC</TIME_SYSTEM><MEAN_ELEMENT_THEORY>SGP4</MEAN_ELEMENT_THEORY></metadata><data><meanElements><EPOCH>2024-10-20T10:26:25.434240</EPOCH><MEAN_MOTION>14.44229994</MEAN_MOTION><ECCENTRICITY>.0002087</ECCENTRICITY><INCLINATION>45.0137</INCLINATION><RA_OF_ASC_NODE>77.8179</RA_OF_ASC_NODE><ARG_OF_PERICENTER>171.8209</ARG_OF_PERICENTER><MEAN_ANOMALY>217.9062</MEAN_ANOMALY></meanElements><tleParameters><EPHEMERIS_TYPE>0</EPHEMERIS_TYPE><CLASSIFICATION_TYPE>U</CLASSIFICATION_TYPE><NORAD_CAT_ID>25118</NORAD_CAT_ID><ELEMENT_SET_NO>999</ELEMENT_SET_NO><REV_AT_EPOCH>40684</REV_AT_EPOCH><BSTAR>.34897E-2</BSTAR><MEAN_MOTION_DOT>.11977E-3</MEAN_MOTION_DOT><MEAN_MOTION_DDOT>0</MEAN_MOTION_DDOT></tleParameters></data></segment></body></omm>
<omm id="CCSDS_OMM_VERS" version="2.0">
<header><CREATION_DATE/><ORIGINATOR/></header><body><segment><metadata><OBJECT_NAME>ORBCOMM FM07</OBJECT_NAME><OBJECT_ID>1997-084H</OBJECT_ID><CENTER_NAME>EARTH</CENTER_NAME><REF_FRAME>TEME</REF_FRAME><TIME_SYSTEM>UTC</TIME_SYSTEM><MEAN_ELEMENT_THEORY>SGP4</MEAN_ELEMENT_THEORY></metadata><data><meanElements><EPOCH>2024-10-20T12:01:18.158304</EPOCH><MEAN_MOTION>14.44118953</MEAN_MOTION><ECCENTRICITY>.000241</ECCENTRICITY><INCLINATION>45.0133</INCLINATION><RA_OF_ASC_NODE>78.1567</RA_OF_ASC_NODE><ARG_OF_PERICENTER>127.7556</ARG_OF_PERICENTER><MEAN_ANOMALY>232.3513</MEAN_ANOMALY></meanElements><tleParameters><EPHEMERIS_TYPE>0</EPHEMERIS_TYPE><CLASSIFICATION_TYPE>U</CLASSIFICATION_TYPE><NORAD_CAT_ID>25119</NORAD_CAT_ID><ELEMENT_SET_NO>999</ELEMENT_SET_NO><REV_AT_EPOCH>40684</REV_AT_EPOCH><BSTAR>.26331E-2</BSTAR><MEAN_MOTION_DOT>.8977E-4</MEAN_MOTION_DOT><MEAN_MOTION_DDOT>0</MEAN_MOTION_DDOT></tleParameters></data></segment></body></omm>
<omm id="CCSDS_OMM_VERS" version="2.0">
<header><CREATION_DATE/><ORIGINATOR/></header><body><segment><metadata><OBJECT_NAME>ORBCOMM FM03</OBJECT_NAME><OBJECT_ID>1998-007B</OBJECT_ID><CENTER_NAME>EARTH</CENTER_NAME><REF_FRAME>TEME</REF_FRAME><TIME_SYSTEM>UTC</TIME_SYSTEM><MEAN_ELEMENT_THEORY>SGP4</MEAN_ELEMENT_THEORY></metadata><data><meanElements><EPOCH>2024-10-20T16:56:51.090432</EPOCH><MEAN_MOTION>14.33146739</MEAN_MOTION><ECCENTRICITY>.0048025</ECCENTRICITY><INCLINATION>107.9684</INCLINATION><RA_OF_ASC_NODE>4.0420</RA_OF_ASC_NODE><ARG_OF_PERICENTER>305.2533</ARG_OF_PERICENTER><MEAN_ANOMALY>54.4117</MEAN_ANOMALY></meanElements><tleParameters><EPHEMERIS_TYPE>0</EPHEMERIS_TYPE><CLASSIFICATION_TYPE>U</CLASSIFICATION_TYPE><NORAD_CAT_ID>25158</NORAD_CAT_ID><ELEMENT_SET_NO>999</ELEMENT_SET_NO><REV_AT_EPOCH>38985</REV_AT_EPOCH><BSTAR>.1413E-2</BSTAR><MEAN_MOTION_DOT>.3806E-4</MEAN_MOTION_DOT><MEAN_MOTION_DDOT>0</MEAN_MOTION_DDOT></tleParameters></data></segment></body></omm>
<omm id="CCSDS_OMM_VERS" version="2.0">
<header><CREATION_DATE/><ORIGINATOR/></header><body><segment><metadata><OBJECT_NAME>ORBCOMM FM04</OBJECT_NAME><OBJECT_ID>1998-007C</OBJECT_ID><CENTER_NAME>EARTH</CENTER_NAME><REF_FRAME>TEME</REF_FRAME><TIME_SYSTEM>UTC</TIME_SYSTEM><MEAN_ELEMENT_THEORY>SGP4</MEAN_ELEMENT_THEORY></metadata><data><meanElements><EPOCH>2024-10-20T17:36:56.884608</EPOCH><MEAN_MOTION>14.33414562</MEAN_MOTION><ECCENTRICITY>.0043756</ECCENTRICITY><INCLINATION>107.9669</INCLINATION><RA_OF_ASC_NODE>7.1508</RA_OF_ASC_NODE><ARG_OF_PERICENTER>302.5856</ARG_OF_PERICENTER><MEAN_ANOMALY>57.1062</MEAN_ANOMALY></meanElements><tleParameters><EPHEMERIS_TYPE>0</EPHEMERIS_TYPE><CLASSIFICATION_TYPE>U</CLASSIFICATION_TYPE><NORAD_CAT_ID>25159</NORAD_CAT_ID><ELEMENT_SET_NO>999</ELEMENT_SET_NO><REV_AT_EPOCH>39000</REV_AT_EPOCH><BSTAR>.15495E-2</BSTAR><MEAN_MOTION_DOT>.4201E-4</MEAN_MOTION_DOT><MEAN_MOTION_DDOT>0</MEAN_MOTION_DDOT></tleParameters></data></segment></body></omm>
<omm id="CCSDS_OMM_VERS" version="2.0">
<header><CREATION_DATE/><ORIGINATOR/></header><body><segment><metadata><OBJECT_NAME>ORBCOMM FM17</OBJECT_NAME><OBJECT_ID>1998-046A</OBJECT_ID><CENTER_NAME>EARTH</CENTER_NAME><REF_FRAME>TEME</REF_FRAME><TIME_SYSTEM>UTC</TIME_SYSTEM><MEAN_ELEMENT_THEORY>SGP4</MEAN_ELEMENT_THEORY></metadata><data><meanElements><EPOCH>2024-10-20T08:42:27.007776</EPOCH><MEAN_MOTION>14.33987231</MEAN_MOTION><ECCENTRICITY>.0000553</ECCENTRICITY><INCLINATION>44.9942</INCLINATION><RA_OF_ASC_NODE>308.6300</RA_OF_ASC_NODE><ARG_OF_PERICENTER>0.2204</ARG_OF_PERICENTER><MEAN_ANOMALY>359.8642</MEAN_ANOMALY></meanElements><tleParameters><EPHEMERIS_TYPE>0</EPHEMERIS_TYPE><CLASSIFICATION_TYPE>U</CLASSIFICATION_TYPE><NORAD_CAT_ID>25413</NORAD_CAT_ID><ELEMENT_SET_NO>999</ELEMENT_SET_NO><REV_AT_EPOCH>36873</REV_AT_EPOCH><BSTAR>.17605E-2</BSTAR><MEAN_MOTION_DOT>.482E-4</MEAN_MOTION_DOT><MEAN_MOTION_DDOT>0</MEAN_MOTION_DDOT></tleParameters></data></segment></body></omm>
<omm id="CCSDS_OMM_VERS" version="2.0">
<header><CREATION_DATE/><ORIGINATOR/></header><body><segment><metadata><OBJECT_NAME>ORBCOMM FM18</OBJECT_NAME><OBJECT_ID>1998-046B</OBJECT_ID><CENTER_NAME>EARTH</CENTER_NAME><REF_FRAME>TEME</REF_FRAME><TIME_SYSTEM>UTC</TIME_SYSTEM><MEAN_ELEMENT_THEORY>SGP4</MEAN_ELEMENT_THEORY></metadata><data><meanElements><EPOCH>2024-10-20T20:44:18.625344</EPOCH><MEAN_MOTION>14.37045869</MEAN_MOTION><ECCENTRICITY>.0002804</ECCENTRICITY><INCLINATION>44.9925</INCLINATION><RA_OF_ASC_NODE>229.7322</RA_OF_ASC_NODE><ARG_OF_PERICENTER>152.1864</ARG_OF_PERICENTER><MEAN_ANOMALY>207.9134</MEAN_ANOMALY></meanElements><tleParameters><EPHEMERIS_TYPE>0</EPHEMERIS_TYPE><CLASSIFICATION_TYPE>U</CLASSIFICATION_TYPE><NORAD_CAT_ID>25414</NORAD_CAT_ID><ELEMENT_SET_NO>999</ELEMENT_SET_NO><REV_AT_EPOCH>36997</REV_AT_EPOCH><BSTAR>.21321E-2</BSTAR><MEAN_MOTION_DOT>.6248E-4</MEAN_MOTION_DOT><MEAN_MOTION_DDOT>0</MEAN_MOTION_DDOT></tleParameters></data></segment></body></omm>
<omm id="CCSDS_OMM_VERS" version="2.0">
<header><CREATION_DATE/><ORIGINATOR/></header><body><segment><metadata><OBJECT_NAME>ORBCOMM FM19</OBJECT_NAME><OBJECT_ID>1998-046C</OBJECT_ID><CENTER_NAME>EARTH</CENTER_NAME><REF_FRAME>TEME</REF_FRAME><TIME_SYSTEM>UTC</TIME_SYSTEM><MEAN_ELEMENT_THEORY>SGP4</MEAN_ELEMENT_THEORY></metadata><data><meanElements><EPOCH>2024-10-20T20:32:34.098144</EPOCH><MEAN_MOTION>14.36876467</MEAN_MOTION><ECCENTRICITY>.0001644</ECCENTRICITY><INCLINATION>44.9935</INCLINATION><RA_OF_ASC_NODE>231.4055</RA_OF_ASC_NODE><ARG_OF_PERICENTER>135.4655</ARG_OF_PERICENTER><MEAN_ANOMALY>259.1038</MEAN_ANOMALY></meanElements><tleParameters><EPHEMERIS_TYPE>0</EPHEMERIS_TYPE><CLASSIFICATION_TYPE>U</CLASSIFICATION_TYPE><NORAD_CAT_ID>25415</NORAD_CAT_ID><ELEMENT_SET_NO>999</ELEMENT_SET_NO><REV_AT_EPOCH>36996</REV_AT_EPOCH><BSTAR>.21171E-2</BSTAR><MEAN_MOTION_DOT>.6181E-4</MEAN_MOTION_DOT><MEAN_MOTION_DDOT>0</MEAN_MOTION_DDOT></tleParameters></data></segment></body></omm>

</ndm>
